QZS-3-(MICHIBIKI-3)-----
1 42917U 17048A   23008.86079841 -.00000335  00000+0  00000+0 0  9999
2 42917   0.0608 181.3328 0002388 123.4355 240.2940  1.00272974 19675
